[{"OBJECT_NAME":"POLYITAN-1","OBJECT_ID":"2014-033AJ","EPOCH":"2026-03-09T22:27:50.258304","MEAN_MOTION":15.29568085,"ECCENTRICITY":0.00093607,"INCLINATION":98.1053,"RA_OF_ASC_NODE":86.0432,"ARG_OF_PERICENTER":127.248,"MEAN_ANOMALY":232.9614,"EPHEMERIS_TYPE":0,"CLASSIFICATION_TYPE":"U","NORAD_CAT_ID":40042,"ELEMENT_SET_NO":999,"REV_AT_EPOCH":63840,"BSTAR":0.00083772474,"MEAN_MOTION_DOT":0.00024003,"MEAN_MOTION_DDOT":0},{"OBJECT_NAME":"STARLINK-2633","OBJECT_ID":"2021-040H","EPOCH":"2026-03-09T17:56:48.276672","MEAN_MOTION":15.29371056,"ECCENTRICITY":0.00012426,"INCLINATION":53.1552,"RA_OF_ASC_NODE":164.8493,"ARG_OF_PERICENTER":92.3494,"MEAN_ANOMALY":267.7648,"EPHEMERIS_TYPE":0,"CLASSIFICATION_TYPE":"U","NORAD_CAT_ID":48435,"ELEMENT_SET_NO":999,"REV_AT_EPOCH":26686,"BSTAR":0.00052180168,"MEAN_MOTION_DOT":0.00014738,"MEAN_MOTION_DDOT":0}]
